{"type": "FeatureCollection", "features": [{"type": "Feature", "properties": {"id": "a51c5ff0-be2b-4fe9-963d-8c412e125d9e", "name": null, "class": null, "subtype": null, "height": null, "source": "OpenStreetMap", "record": "w540537267@1"}, "geometry": {"type": "Polygon", "coordinates": [[[52.886534, 29.9281013], [52.8864852, 29.9281802], [52.8865586, 29.9282503], [52.8864535, 29.9282315], [52.8864039, 29.9283116], [52.886393, 29.9282207], [52.8862903, 29.9282024], [52.886386, 29.9281627], [52.8863756, 29.9280758], [52.8864423, 29.9281393], [52.886534, 29.9281013]]]}}, {"type": "Feature", "properties": {"id": "0654ac7c-63cc-4730-80bc-2a08847636ff", "name": "\u06a9\u0627\u062e \u0647\u062f\u06cc\u0634", "class": null, "subtype": null, "height": null, "source": "OpenStreetMap", "record": "w95531809@11"}, "geometry": {"type": "Polygon", "coordinates": [[[52.8903408, 29.9343396], [52.8898049, 29.9341834], [52.8899166, 29.9338957], [52.8900482, 29.9335568], [52.8906072, 29.9337197], [52.890364, 29.9343464], [52.8903408, 29.9343396]]]}}, {"type": "Feature", "properties": {"id": "8d1f2313-40c3-412f-828d-159fb15378a8", "name": "\u0645\u0648\u0632\u0647 \u062a\u062e\u062a \u062c\u0645\u0634\u06cc\u062f", "class": null, "subtype": "entertainment", "height": null, "source": "OpenStreetMap", "record": "w95531805@14"}, "geometry": {"type": "Polygon", "coordinates": [[[52.8910757, 29.9343816], [52.8908946, 29.9343294], [52.8910746, 29.9338602], [52.8911678, 29.9336173], [52.8915188, 29.9337185], [52.8912455, 29.9344305], [52.8910757, 29.9343816]]]}}, {"type": "Feature", "properties": {"id": "f9991485-5868-4707-9397-f63a6f8bfcdc", "name": "\u06a9\u0627\u062e \u0645\u0644\u06a9\u0647", "class": null, "subtype": null, "height": null, "source": "OpenStreetMap", "record": "w95531815@12"}, "geometry": {"type": "Polygon", "coordinates": [[[52.8906072, 29.9337197], [52.8900482, 29.9335568], [52.8901392, 29.9333029], [52.8906632, 29.9334551], [52.8906996, 29.9333608], [52.8911398, 29.9334886], [52.8910985, 29.9335956], [52.8911678, 29.9336173], [52.8915188, 29.9337185], [52.8912455, 29.9344305], [52.8910757, 29.9343816], [52.8908946, 29.9343294], [52.8910746, 29.9338602], [52.8906072, 29.9337197]]]}}, {"type": "Feature", "properties": {"id": "0fa5d22d-076f-4d3a-846c-7bb02d5a7071", "name": "\u06a9\u0627\u062e \u0627\u0631\u062f\u0634\u06cc\u0631 \u0627\u0648\u0644", "class": null, "subtype": null, "height": null, "source": "OpenStreetMap", "record": "w95531800@12"}, "geometry": {"type": "Polygon", "coordinates": [[[52.8899166, 29.9338957], [52.8894583, 29.9337518], [52.8895168, 29.9336121], [52.8895726, 29.9336296], [52.8896566, 29.9334289], [52.8897836, 29.9334688], [52.8900482, 29.9335568], [52.8899166, 29.9338957]]]}}, {"type": "Feature", "properties": {"id": "d87add59-7e7e-4322-a4c1-d3bbae32eaa7", "name": null, "class": null, "subtype": null, "height": null, "source": "OpenStreetMap", "record": "w381502504@1"}, "geometry": {"type": "Polygon", "coordinates": [[[52.8924162, 29.9327978], [52.8919411, 29.9328743], [52.891924, 29.9327946], [52.8923991, 29.9327181], [52.8924162, 29.9327978]]]}}, {"type": "Feature", "properties": {"id": "eee34f9b-4b80-4fd6-a293-b63cc108c667", "name": null, "class": null, "subtype": null, "height": null, "source": "OpenStreetMap", "record": "w381502513@1"}, "geometry": {"type": "Polygon", "coordinates": [[[52.8934952, 29.9328679], [52.8934598, 29.9328866], [52.8934009, 29.9328026], [52.8936304, 29.9326818], [52.8936904, 29.9327674], [52.8935981, 29.932816], [52.8936275, 29.9328578], [52.8935257, 29.9329114], [52.8934952, 29.9328679]]]}}, {"type": "Feature", "properties": {"id": "ab8e7e9e-c1cf-41c5-af14-dc77f2d80283", "name": null, "class": null, "subtype": null, "height": null, "source": "OpenStreetMap", "record": "w381502510@1"}, "geometry": {"type": "Polygon", "coordinates": [[[52.8928376, 29.9328536], [52.8927276, 29.9328521], [52.8927288, 29.9327852], [52.8926962, 29.9327848], [52.8926979, 29.9326968], [52.8928231, 29.9326985], [52.8928216, 29.9327786], [52.892839, 29.9327789], [52.8928376, 29.9328536]]]}}, {"type": "Feature", "properties": {"id": "53a0b6ae-eb00-4134-bdb6-3bb1e74c74cd", "name": null, "class": null, "subtype": null, "height": null, "source": "OpenStreetMap", "record": "w381502509@1"}, "geometry": {"type": "Polygon", "coordinates": [[[52.8934795, 29.9329437], [52.8930729, 29.933166], [52.8930438, 29.9331261], [52.8930034, 29.9330705], [52.8929779, 29.9330355], [52.8933845, 29.9328132], [52.8934795, 29.9329437]]]}}, {"type": "Feature", "properties": {"id": "eff6863d-b608-4194-bd09-1f9d4d93a957", "name": null, "class": null, "subtype": null, "height": null, "source": "OpenStreetMap", "record": "w381502507@1"}, "geometry": {"type": "Polygon", "coordinates": [[[52.8930034, 29.9330705], [52.8929143, 29.9331097], [52.8928904, 29.9330729], [52.8929779, 29.9330355], [52.8930034, 29.9330705]]]}}, {"type": "Feature", "properties": {"id": "9b42ae1e-e2c0-476a-bb38-f7a1560632ea", "name": null, "class": null, "subtype": null, "height": null, "source": "OpenStreetMap", "record": "w381502515@1"}, "geometry": {"type": "Polygon", "coordinates": [[[52.8930438, 29.9331261], [52.8930729, 29.933166], [52.8930231, 29.9331879], [52.8929368, 29.9332235], [52.8928334, 29.93325], [52.8928082, 29.9332005], [52.8929103, 29.9331718], [52.8929873, 29.9331339], [52.8930005, 29.9331511], [52.8930438, 29.9331261]]]}}, {"type": "Feature", "properties": {"id": "5e020e8f-5cbc-4ebf-9cf0-ad7207bd17b4", "name": null, "class": null, "subtype": null, "height": null, "source": "OpenStreetMap", "record": "w381502498@1"}, "geometry": {"type": "Polygon", "coordinates": [[[52.8928042, 29.9331557], [52.8928082, 29.9332005], [52.8926198, 29.9332097], [52.8926158, 29.9331615], [52.8928042, 29.9331557]]]}}, {"type": "Feature", "properties": {"id": "5e7dc32e-654b-4768-bc1e-3bf7c5977b85", "name": "\u0622\u0631\u0627\u0645\u06af\u0627\u0647 \u0627\u0631\u062f\u0634\u06cc\u0631 \u062f\u0648\u0645", "class": null, "subtype": null, "height": null, "source": "OpenStreetMap", "record": "w630479661@2"}, "geometry": {"type": "Polygon", "coordinates": [[[52.8945515, 29.9333566], [52.894271, 29.9332302], [52.8943401, 29.9331152], [52.8946205, 29.9332416], [52.8945515, 29.9333566]]]}}, {"type": "Feature", "properties": {"id": "013b4672-9c0b-42e7-8ccf-debfa08a0bc1", "name": "\u062e\u0631\u06cc\u062f \u0628\u0644\u06cc\u0637 \u0648\u0631\u0648\u062f\u06cc \u0628\u0647 \u0645\u062c\u0645\u0648\u0639\u0647 \u062a\u062e\u062a \u062c\u0645\u0634\u06cc\u062f", "class": null, "subtype": null, "height": null, "source": "OpenStreetMap", "record": "w632117040@6"}, "geometry": {"type": "Polygon", "coordinates": [[[52.8850692, 29.9348118], [52.8848769, 29.9347576], [52.8848844, 29.9347377], [52.8848915, 29.9347186], [52.8849793, 29.9344846], [52.8851717, 29.9345388], [52.8850692, 29.9348118]]]}}, {"type": "Feature", "properties": {"id": "cd7df712-5051-4081-9873-fcc6c1030ef9", "name": "\u06a9\u0627\u062e \u0627\u0631\u062f\u0634\u06cc\u0631 \u0633\u0648\u0645", "class": null, "subtype": null, "height": null, "source": "OpenStreetMap", "record": "w95531811@14"}, "geometry": {"type": "Polygon", "coordinates": [[[52.8902227, 29.9346498], [52.8896894, 29.9344975], [52.8897867, 29.9342414], [52.8898049, 29.9341834], [52.8903408, 29.9343396], [52.8902227, 29.9346498]]]}}, {"type": "Feature", "properties": {"id": "85707128-5de5-4548-8726-50bff68575ff", "name": "\u06a9\u0627\u062e \u062a\u0686\u0631", "class": null, "subtype": null, "height": null, "source": "OpenStreetMap", "record": "w95531822@12"}, "geometry": {"type": "Polygon", "coordinates": [[[52.8896447, 29.9346149], [52.8893216, 29.9345226], [52.8894636, 29.9341491], [52.8897867, 29.9342414], [52.8896894, 29.9344975], [52.8896447, 29.9346149]]]}}, {"type": "Feature", "properties": {"id": "4dd77e1d-e0fc-42f2-ae35-fb71c8ad6563", "name": "\u062e\u0632\u0627\u0646\u0647 \u0634\u0627\u0647\u06cc", "class": null, "subtype": null, "height": null, "source": "OpenStreetMap", "record": "w95531781@13"}, "geometry": {"type": "Polygon", "coordinates": [[[52.8915152, 29.9350906], [52.8910915, 29.9349648], [52.8915941, 29.9336939], [52.8923815, 29.9339277], [52.8918789, 29.9351986], [52.8915152, 29.9350906]]]}}, {"type": "Feature", "properties": {"id": "27211a6f-a1a2-4df0-b360-6e1648886e77", "name": "\u06a9\u0627\u062e \u0633\u0647 \u062f\u0631", "class": null, "subtype": null, "height": null, "source": "OpenStreetMap", "record": "w95531793@9"}, "geometry": {"type": "Polygon", "coordinates": [[[52.8906004, 29.9348611], [52.8903809, 29.934797], [52.8905095, 29.9344662], [52.890729, 29.9345303], [52.8906004, 29.9348611]]]}}, {"type": "Feature", "properties": {"id": "e466c0fb-814c-4002-a2e2-73972db7028a", "name": "\u06a9\u0627\u062e \u0622\u067e\u0627\u062f\u0627\u0646\u0627", "class": null, "subtype": null, "height": null, "source": "OpenStreetMap", "record": "w95531802@11"}, "geometry": {"type": "Polygon", "coordinates": [[[52.8899856, 29.9356493], [52.8899491, 29.9357489], [52.8888592, 29.9354258], [52.8888347, 29.935488], [52.8886938, 29.9354462], [52.8890815, 29.9344643], [52.8903252, 29.934833], [52.8899856, 29.9356493]]]}}, {"type": "Feature", "properties": {"id": "a1bf0b3d-8342-4a74-97fc-2cf25026b896", "name": null, "class": "roof", "subtype": "outbuilding", "height": null, "source": "OpenStreetMap", "record": "w381502517@1"}, "geometry": {"type": "Polygon", "coordinates": [[[52.8901759, 29.9357088], [52.8899856, 29.9356493], [52.8903252, 29.934833], [52.8903457, 29.9347838], [52.8903809, 29.934797], [52.8906004, 29.9348611], [52.8907161, 29.9348995], [52.8906528, 29.9350516], [52.8904726, 29.9349953], [52.8901759, 29.9357088]]]}}, {"type": "Feature", "properties": {"id": "c8a39901-9c3d-4cd7-a5cc-2f4f4a23965a", "name": "\u062a\u0627\u0644\u0627\u0631 \u06f1\u06f0\u06f0 \u0633\u062a\u0648\u0646", "class": null, "subtype": null, "height": null, "source": "OpenStreetMap", "record": "w95531814@13"}, "geometry": {"type": "Polygon", "coordinates": [[[52.8912646, 29.9357243], [52.8905418, 29.9355096], [52.8907924, 29.9348759], [52.8910915, 29.9349648], [52.8915152, 29.9350906], [52.8912646, 29.9357243]]]}}, {"type": "Feature", "properties": {"id": "64d1eb75-3dba-42f7-affe-b5ed76edc838", "name": null, "class": null, "subtype": null, "height": null, "source": "OpenStreetMap", "record": "w381502497@2"}, "geometry": {"type": "Polygon", "coordinates": [[[52.8858398, 29.9356412], [52.8857695, 29.9356191], [52.8858391, 29.9354533], [52.8859094, 29.9354754], [52.8858398, 29.9356412]]]}}, {"type": "Feature", "properties": {"id": "764ecc50-d8cb-4c1b-86bb-7de523cff5ac", "name": null, "class": null, "subtype": null, "height": null, "source": "OpenStreetMap", "record": "w304030905@2"}, "geometry": {"type": "Polygon", "coordinates": [[[52.8855198, 29.9356586], [52.8855576, 29.9355725], [52.8857246, 29.9356275], [52.8856868, 29.9357136], [52.8855198, 29.9356586]]]}}, {"type": "Feature", "properties": {"id": "72cb2b2f-b796-457e-931e-a6285c558e71", "name": null, "class": null, "subtype": null, "height": null, "source": "OpenStreetMap", "record": "w304030906@3"}, "geometry": {"type": "Polygon", "coordinates": [[[52.8841544, 29.9355407], [52.8842206, 29.9353766], [52.8843358, 29.9354114], [52.8843053, 29.935487], [52.8842696, 29.9355756], [52.8841544, 29.9355407]]]}}, {"type": "Feature", "properties": {"id": "7962061b-e717-476f-89b2-c2cf8bea0bf5", "name": "\u062f\u0641\u062a\u0631 \u06cc\u06af\u0627\u0646 \u062d\u0641\u0627\u0638\u062a \u062a\u062c\u062a \u062c\u0645\u0634\u06cc\u062f", "class": null, "subtype": null, "height": null, "source": "OpenStreetMap", "record": "w1027618400@2"}, "geometry": {"type": "Polygon", "coordinates": [[[52.8836432, 29.9354307], [52.8835815, 29.9355701], [52.883426, 29.9355283], [52.883485, 29.9353772], [52.8836432, 29.9354307]]]}}, {"type": "Feature", "properties": {"id": "7312dabb-9c2d-4530-8891-d66fb8d17964", "name": null, "class": null, "subtype": null, "height": null, "source": "OpenStreetMap", "record": "w381502512@2"}, "geometry": {"type": "Polygon", "coordinates": [[[52.8858235, 29.9354215], [52.8856393, 29.9353619], [52.8856483, 29.9353411], [52.8856902, 29.9353547], [52.8856985, 29.9353355], [52.8858113, 29.935372], [52.8858045, 29.935388], [52.8858339, 29.9353975], [52.8858235, 29.9354215]]]}}, {"type": "Feature", "properties": {"id": "ff86384c-94e1-48ba-841b-dee7efd215c5", "name": null, "class": null, "subtype": null, "height": null, "source": "OpenStreetMap", "record": "w381502499@2"}, "geometry": {"type": "Polygon", "coordinates": [[[52.8856039, 29.9353806], [52.8855328, 29.9355475], [52.8854449, 29.9355194], [52.8855159, 29.9353525], [52.8856039, 29.9353806]]]}}, {"type": "Feature", "properties": {"id": "c0157293-a538-4f60-a7a6-6a47cf42d799", "name": null, "class": null, "subtype": null, "height": null, "source": "OpenStreetMap", "record": "w381502508@1"}, "geometry": {"type": "Polygon", "coordinates": [[[52.888534, 29.9360399], [52.8884945, 29.9360277], [52.8885079, 29.935995], [52.8885457, 29.9360067], [52.8885845, 29.9360179], [52.8885713, 29.9360513], [52.888534, 29.9360399]]]}}, {"type": "Feature", "properties": {"id": "800d286c-5910-4d7b-9d4f-478151debece", "name": "\u067e\u0644\u06a9\u0627\u0646 \u0645\u0644\u0644", "class": null, "subtype": null, "height": null, "source": "OpenStreetMap", "record": "w95531785@12"}, "geometry": {"type": "Polygon", "coordinates": [[[52.8887418, 29.935725], [52.888765, 29.9356618], [52.8888294, 29.9356812], [52.8888041, 29.9357443], [52.8888869, 29.9357692], [52.8886468, 29.9363679], [52.8885618, 29.9363423], [52.8885378, 29.9364024], [52.8884737, 29.9363831], [52.88856, 29.9361731], [52.8886257, 29.9360093], [52.8886317, 29.9359928], [52.8887042, 29.9358163], [52.8887418, 29.935725]]]}}, {"type": "Feature", "properties": {"id": "c4b51d62-7562-4884-b02a-b5b064c333a7", "name": "\u062f\u0631\u0628 \u0646\u0627\u062a\u0645\u0627\u0645", "class": null, "subtype": null, "height": null, "source": "OpenStreetMap", "record": "w435001961@5"}, "geometry": {"type": "Polygon", "coordinates": [[[52.8908305, 29.9366519], [52.8904559, 29.9365538], [52.8905506, 29.9364307], [52.8906494, 29.9361953], [52.890989, 29.9363041], [52.8908305, 29.9366519]]]}}, {"type": "Feature", "properties": {"id": "6f3238d7-e9d8-4cb7-801b-2682ffcd4e83", "name": "\u062f\u0631\u0648\u0627\u0632\u0647 \u0645\u0644\u0644", "class": null, "subtype": null, "height": null, "source": "OpenStreetMap", "record": "w95531813@16"}, "geometry": {"type": "Polygon", "coordinates": [[[52.8891724, 29.9363753], [52.8888598, 29.9362747], [52.8889266, 29.9361188], [52.8889838, 29.9359857], [52.8891424, 29.9360371], [52.8892964, 29.9360863], [52.8892408, 29.9362159], [52.8891724, 29.9363753]]]}}, {"type": "Feature", "properties": {"id": "5eb22fe0-7ab8-4ea4-a3e9-d6248aa045cc", "name": "\u0646\u06af\u0647\u0628\u0627\u0646\u062e\u0627\u0646\u0647 \u0648 \u062a\u0627\u0644\u0627\u0631 \u06f3\u06f2 \u0633\u062a\u0648\u0646", "class": null, "subtype": null, "height": null, "source": "OpenStreetMap", "record": "w95531787@13"}, "geometry": {"type": "Polygon", "coordinates": [[[52.8912646, 29.9357243], [52.8915152, 29.9350906], [52.8918789, 29.9351986], [52.8915504, 29.9360291], [52.8913868, 29.9364429], [52.8912517, 29.9367844], [52.8908821, 29.9366746], [52.8910496, 29.9362511], [52.8911492, 29.9362806], [52.8912606, 29.9359991], [52.891167, 29.9359713], [52.8912646, 29.9357243]]]}}]}